NORAD_CAT_ID,OBJECT_NAME,OBJECT_TYPE,EPOCH,MEAN_MOTION,ECCENTRICITY,INCLINATION,RA_OF_ASC_NODE,ARG_OF_PERICENTER,MEAN_ANOMALY,BSTAR,MEAN_MOTION_DOT,MEAN_MOTION_DDOT,TLE_LINE0,TLE_LINE1,TLE_LINE2,SEMIMAJOR_AXIS,PERIOD,APOGEE,PERIGEE,DECAYED
53159.0,STARLINK-4111,PAYLOAD,2023-04-28 10:43:22,15.08859865,0.0001296,53.2146,180.8911,85.4046,274.7095,0.00034017,5.133e-05,0.0,0 STARLINK-4111,1 53159U 22083AD  23118.44678296  .00005133  00000-0  34017-3 0  9999,2 53159  53.2146 180.8911 0001296  85.4046 274.7095 15.08859865 44040,6917.82,95.436,540.581,538.788,0.0
53159.0,STARLINK-4111,PAYLOAD,2023-04-29 04:12:36,15.08849784,0.0001195,53.2153,177.6194,80.7557,279.357,-6.1078e-06,-3.85e-06,0.0,0 STARLINK-4111,1 53159U 22083AD  23119.17541915 -.00000385  00000-0 -61078-5 0  9992,2 53159  53.2153 177.6194 0001195  80.7557 279.3570 15.08849784 44158,6917.85,95.437,540.542,538.889,0.0
53159.0,STARLINK-4111,PAYLOAD,2023-04-29 10:34:08,15.08852797,0.0001217,53.2151,176.429,87.9496,272.1635,4.1375e-05,3.71e-06,0.0,0 STARLINK-4111,1 53159U 22083AD  23119.44037590  .00000371  00000-0  41375-4 0  9991,2 53159  53.2151 176.4290 0001217  87.9496 272.1635 15.08852797 43561,6917.841,95.437,540.548,538.864,0.0
53159.0,STARLINK-4111,PAYLOAD,2023-04-29 15:20:17,15.08859178,0.0001237,53.2154,175.5363,90.7437,269.3697,0.00011566,1.554e-05,0.0,0 STARLINK-4111,1 53159U 22083AD  23119.63909107  .00001554  00000-0  11566-3 0  9996,2 53159  53.2154 175.5363 0001237  90.7437 269.3697 15.08859178 44224,6917.822,95.436,540.543,538.831,0.0
53159.0,STARLINK-4111,PAYLOAD,2023-04-30 04:03:23,15.08841655,0.0001012,53.2156,173.1564,93.3825,266.7283,-0.00010809,-2.008e-05,0.0,0 STARLINK-4111,1 53159U 22083AD  23120.16901678 -.00002008  00000-0 -10809-3 0  9997,2 53159  53.2156 173.1564 0001012  93.3825 266.7283 15.08841655 44306,6917.875,95.437,540.44,539.04,0.0
53159.0,STARLINK-4111,PAYLOAD,2023-04-30 10:24:55,15.08846539,0.0001201,53.2154,171.9663,99.7649,260.3479,-1.7728e-05,-5.7e-06,0.0,0 STARLINK-4111,1 53159U 22083AD  23120.43397350 -.00000570  00000-0 -17728-4 0  9993,2 53159  53.2154 171.9663 0001201  99.7649 260.3479 15.08846539 43711,6917.86,95.437,540.556,538.895,0.0
53159.0,STARLINK-4111,PAYLOAD,2023-04-30 15:11:04,15.0884814,0.0001406,53.2162,171.0714,112.5214,247.5927,4.0094e-05,3.5e-06,0.0,0 STARLINK-4111,1 53159U 22083AD  23120.63269162  .00000350  00000-0  40094-4 0  9990,2 53159  53.2162 171.0714 0001406 112.5214 247.5927 15.08848140 44375,6917.856,95.437,540.693,538.748,0.0
53159.0,STARLINK-4111,PAYLOAD,2023-05-01 03:54:10,15.08838625,0.000145,53.2152,168.6932,103.947,256.1683,3.759e-05,3.1e-06,0.0,0 STARLINK-4111,1 53159U 22083AD  23121.16261769  .00000310  00000-0  37590-4 0  9997,2 53159  53.2152 168.6932 0001450 103.9470 256.1683 15.08838625 44456,6917.885,95.438,540.753,538.746,0.0
53159.0,STARLINK-4111,PAYLOAD,2023-05-01 08:40:19,15.08837795,0.0001608,53.2153,167.7996,126.5066,233.6074,-5.5772e-05,-1.175e-05,0.0,0 STARLINK-4111,1 53159U 22083AD  23121.36133663 -.00001175  00000-0 -55772-4 0  9994,2 53159  53.2153 167.7996 0001608 126.5066 233.6074 15.08837795 43858,6917.887,95.438,540.865,538.64,0.0
53159.0,STARLINK-4111,PAYLOAD,2023-05-01 13:26:29,15.08837863,0.0001081,53.2156,166.9108,92.0601,268.0515,-3.5311e-05,-8.5e-06,0.0,0 STARLINK-4111,1 53159U 22083AD  23121.56005845 -.00000850  00000-0 -35311-4 0  9992,2 53159  53.2156 166.9108 0001081  92.0601 268.0515 15.08837863 43885,6917.887,95.438,540.5,539.004,0.0
53159.0,STARLINK-4111,PAYLOAD,2023-05-02 11:41:52,15.08847353,0.0001087,53.2155,162.7479,82.3404,277.7712,0.00028525,4.256e-05,0.0,0 STARLINK-4111,1 53159U 22083AD  23122.48741758  .00004256  00000-0  28525-3 0  9994,2 53159  53.2155 162.7479 0001087  82.3404 277.7712 15.08847353 44655,6917.858,95.437,540.475,538.971,0.0
53159.0,STARLINK-4111,PAYLOAD,2023-05-02 14:52:39,15.08850685,0.0001109,53.2157,162.1524,85.4168,274.6951,0.00034779,5.253e-05,0.0,0 STARLINK-4111,1 53159U 22083AD  23122.61989621  .00005253  00000-0  34779-3 0  9998,2 53159  53.2157 162.1524 0001109  85.4168 274.6951 15.08850685 44044,6917.848,95.437,540.48,538.946,0.0
53159.0,STARLINK-4111,PAYLOAD,2023-05-03 03:35:44,15.08842081,0.0001316,53.2145,159.7739,99.161,260.9531,0.00014143,1.964e-05,0.0,0 STARLINK-4111,1 53159U 22083AD  23123.14982069  .00001964  00000-0  14143-3 0  9994,2 53159  53.2145 159.7739 0001316  99.1610 260.9531 15.08842081 44756,6917.874,95.437,540.649,538.829,0.0
53159.0,STARLINK-4111,PAYLOAD,2023-05-03 11:32:40,15.0884397,9.87e-05,53.2146,158.2876,90.0873,270.0232,0.00019301,2.786e-05,0.0,0 STARLINK-4111,1 53159U 22083AD  23123.48101897  .00002786  00000-0  19301-3 0  9997,2 53159  53.2146 158.2876 0000987  90.0873 270.0232 15.08843970 44171,6917.868,95.437,540.416,539.05,0.0
53159.0,STARLINK-4111,PAYLOAD,2023-05-03 14:43:26,15.08846087,0.000103,53.2144,157.6926,92.1414,267.9696,0.00018214,2.613e-05,0.0,0 STARLINK-4111,1 53159U 22083AD  23123.61349865  .00002613  00000-0  18214-3 0  9992,2 53159  53.2144 157.6926 0001030  92.1414 267.9696 15.08846087 44195,6917.862,95.437,540.439,539.014,0.0
53159.0,STARLINK-4111,PAYLOAD,2023-05-04 11:23:27,15.08841485,0.0001043,53.2141,153.8263,88.5232,271.588,0.00012061,1.632e-05,0.0,0 STARLINK-4111,1 53159U 22083AD  23124.47462136  .00001632  00000-0  12061-3 0  9998,2 53159  53.2141 153.8263 0001043  88.5232 271.5880 15.08841485 44952,6917.876,95.437,540.462,539.019,0.0
53159.0,STARLINK-4111,PAYLOAD,2023-05-04 19:20:23,15.08841631,0.0001106,53.2142,152.3396,86.2174,273.8945,0.00012418,1.689e-05,0.0,0 STARLINK-4111,1 53159U 22083AD  23124.80582176  .00001689  00000-0  12418-3 0  9990,2 53159  53.2142 152.3396 0001106  86.2174 273.8945 15.08841631 44370,6917.875,95.437,540.506,538.975,0.0
53159.0,STARLINK-4111,PAYLOAD,2023-05-05 19:11:09,15.08845008,0.0001087,53.2144,147.8793,82.6838,277.4278,0.00016401,2.324e-05,0.0,0 STARLINK-4111,1 53159U 22083AD  23125.79942075  .00002324  00000-0  16401-3 0  9990,2 53159  53.2144 147.8793 0001087  82.6838 277.4278 15.08845008 45155,6917.865,95.437,540.482,538.978,0.0
53159.0,STARLINK-4111,PAYLOAD,2023-05-06 07:54:15,15.08843602,0.0001107,53.2144,145.5004,83.9095,276.2023,0.00015098,2.116e-05,0.0,0 STARLINK-4111,1 53159U 22083AD  23126.32934177  .00002116  00000-0  15098-3 0  9994,2 53159  53.2144 145.5004 0001107  83.9095 276.2023 15.08843602 44609,6917.869,95.437,540.5,538.969,0.0
53159.0,STARLINK-4111,PAYLOAD,2023-05-07 01:23:29,15.08844932,0.0001108,53.2144,142.2295,84.3614,275.7505,0.000104,1.368e-05,0.0,0 STARLINK-4111,1 53159U 22083AD  23127.05798022  .00001368  00000-0  10400-3 0  9992,2 53159  53.2144 142.2295 0001108  84.3614 275.7505 15.08844932 45346,6917.865,95.437,540.497,538.964,0.0
53159.0,STARLINK-4111,PAYLOAD,2023-05-07 07:45:02,15.0884318,0.0001084,53.2144,141.0402,85.7628,274.3488,8.1971e-05,1.017e-05,0.0,0 STARLINK-4111,1 53159U 22083AD  23127.32294023  .00001017  00000-0  81971-4 0  9997,2 53159  53.2144 141.0402 0001084  85.7628 274.3488 15.08843180 44759,6917.871,95.437,540.486,538.986,0.0
53159.0,STARLINK-4111,PAYLOAD,2023-05-07 17:17:20,15.08842582,0.0001061,53.2155,139.2564,85.0667,275.0446,6.7443e-05,7.86e-06,0.0,0 STARLINK-4111,1 53159U 22083AD  23127.72038068  .00000786  00000-0  67443-4 0  9996,2 53159  53.2155 139.2564 0001061  85.0667 275.0446 15.08842582 44814,6917.872,95.437,540.471,539.004,0.0
53159.0,STARLINK-4111,PAYLOAD,2023-05-08 04:25:03,15.08834722,0.0001074,53.2155,137.1744,85.2982,274.8133,2.4991e-05,1.1e-06,0.0,0 STARLINK-4111,1 53159U 22083AD  23128.18406770  .00000110  00000-0  24991-4 0  9998,2 53159  53.2155 137.1744 0001074  85.2982 274.8133 15.08834722 45512,6917.897,95.438,540.505,539.019,0.0
53159.0,STARLINK-4111,PAYLOAD,2023-05-08 17:08:08,15.08836741,0.0001104,53.2159,134.7966,99.4894,260.6223,3.8654e-05,3.27e-06,0.0,0 STARLINK-4111,1 53159U 22083AD  23128.71398622  .00000327  00000-0  38654-4 0  9994,2 53159  53.2159 134.7966 0001104  99.4894 260.6223 15.08836741 44962,6917.89,95.438,540.519,538.992,0.0
53159.0,STARLINK-4111,PAYLOAD,2023-05-09 05:51:13,15.08840886,0.0001077,53.2157,132.4173,96.7403,263.3712,8.5756e-05,1.077e-05,0.0,0 STARLINK-4111,1 53159U 22083AD  23129.24390295  .00001077  00000-0  85756-4 0  9999,2 53159  53.2157 132.4173 0001077  96.7403 263.3712 15.08840886 45048,6917.878,95.437,540.488,538.998,0.0
53159.0,STARLINK-4111,PAYLOAD,2023-05-10 07:17:23,15.08837452,0.0001026,53.2155,127.6585,91.5664,268.5446,7.9958e-05,9.85e-06,0.0,0 STARLINK-4111,1 53159U 22083AD  23130.30374848  .00000985  00000-0  79958-4 0  9998,2 53159  53.2155 127.6585 0001026  91.5664 268.5446 15.08837452 45209,6917.888,95.438,540.463,539.043,0.0
53159.0,STARLINK-4111,PAYLOAD,2023-05-10 16:49:42,15.08839048,0.0001034,53.2157,125.8745,92.3896,267.7215,8.7878e-05,1.111e-05,0.0,0 STARLINK-4111,1 53159U 22083AD  23130.70118790  .00001111  00000-0  87878-4 0  9996,2 53159  53.2157 125.8745 0001034  92.3896 267.7215 15.08839048 45268,6917.883,95.438,540.464,539.033,0.0
53159.0,STARLINK-4111,PAYLOAD,2023-05-11 07:08:10,15.08841817,0.000117,53.2164,123.1978,90.8446,269.268,7.0952e-05,8.42e-06,0.0,0 STARLINK-4111,1 53159U 22083AD  23131.29734709  .00000842  00000-0  70952-4 0  9990,2 53159  53.2164 123.1978 0001170  90.8446 269.2680 15.08841817 45350,6917.875,95.437,540.549,538.93,0.0
53159.0,STARLINK-4111,PAYLOAD,2023-05-11 16:40:30,15.08836751,0.0001179,53.2163,121.4125,89.1862,270.9265,2.6459e-05,1.33e-06,0.0,0 STARLINK-4111,1 53159U 22083AD  23131.69479187  .00000133  00000-0  26459-4 0  9996,2 53159  53.2163 121.4125 0001179  89.1862 270.9265 15.08836751 46042,6917.89,95.438,540.571,538.94,0.0
53159.0,STARLINK-4111,PAYLOAD,2023-05-12 05:23:35,15.08834562,0.0001173,53.2162,119.0335,89.4923,270.6203,3.1321e-05,2.11e-06,0.0,0 STARLINK-4111,1 53159U 22083AD  23132.22471482  .00000211  00000-0  31321-4 0  9997,2 53159  53.2162 119.0335 0001173  89.4923 270.6203 15.08834562 45497,6917.897,95.438,540.573,538.951,0.0
